ORBCOMM FM33            
1 25983U 99065D   25365.09032867  .00002310  00000+0  76225-3 0  9992
2 25983  45.0276 142.4398 0007344 328.7829  31.2584 14.40582920364451
ORBCOMM FM36            
1 25984U 99065E   25365.10004287  .00001902  00000+0  65959-3 0  9998
2 25984  45.0378 237.3049 0002005 216.3867 143.6845 14.38765756362773
ORBCOMM FM35            
1 25985U 99065F   25365.01649393  .00001782  00000+0  63450-3 0  9992
2 25985  45.0384 244.3419 0004177 314.8613  45.1896 14.37668898363103
ORBCOMM FM34            
1 25986U 99065G   25365.05324375  .00001428  00000+0  51855-3 0  9990
2 25986  45.0380 244.6423 0003502 266.9209  93.1239 14.37612431363226
ORBCOMM FM38            
1 33060U 08031A   25351.76850136  .00001404  00000+0  20080-3 0  9997
2 33060  48.4372 159.8035 0004435 120.0486 240.0870 14.82282580941971
ORBCOMM FM41            
1 33061U 08031B   25365.31859301  .00004350  00000+0  56999-3 0  9998
2 33061  48.4424 103.6069 0003802 167.0850 236.1703 14.81914798943466
ORBCOMM FM29            
1 33062U 08031C   25365.28294094  .00004666  00000+0  60727-3 0  9991
2 33062  48.4372 111.3175 0005455 163.2558 220.1884 14.82065719943376
ORBCOMM FM39            
1 33063U 08031D   25365.10437681  .00004158  00000+0  56463-3 0  9992
2 33063  48.4381 138.6818 0006107 129.0030 231.1430 14.80488615942968
